STARLINK-32665          
1 62203U 24229M   26068.57456917  .00026498  00000+0  96895-3 0  9996
2 62203  42.9995 271.3734 0001599 246.8294 113.2389 15.27580721 70540
2025-313BE              
1 67482U 25313BE  26068.69721505  .00077178  00000+0  26504-2 0  9996
2 67482  97.3989 145.3568 0007208 335.3714  24.7181 15.29801687  7972
